{
  "norad_id": 56428,
  "name": "STARLINK-6238",
  "history": [
    {
      "epoch": "2026-03-28T05:22:20.498304Z",
      "apogee_km": 559.7496139446121,
      "perigee_km": 558.3870080774232,
      "latitude_deg": 3.94261053246988e-05,
      "longitude_deg": 164.4307617673678,
      "height_km": 558.7748543684033,
      "semi_major_axis_km": 6937.205311011017,
      "eccentricity": 9.821e-05,
      "inclination_deg": 43.0043,
      "raan_deg": 70.6635,
      "arg_perigee_deg": 276.1305,
      "mean_anomaly_deg": 83.9426,
      "mean_motion_rev_day": 15.02539646
    },
    {
      "epoch": "2026-03-29T05:18:15.394464Z",
      "apogee_km": 559.7320066207458,
      "perigee_km": 558.3861905776166,
      "latitude_deg": -2.0624632929268567e-05,
      "longitude_deg": 159.05031469308935,
      "height_km": 558.8069525651204,
      "semi_major_axis_km": 6937.196098599181,
      "eccentricity": 9.7e-05,
      "inclination_deg": 43.0044,
      "raan_deg": 65.2447,
      "arg_perigee_deg": 272.6791,
      "mean_anomaly_deg": 87.394,
      "mean_motion_rev_day": 15.02542639
    },
    {
      "epoch": "2026-03-29T22:51:16.083936Z",
      "apogee_km": 559.7482771418418,
      "perigee_km": 558.4002382502467,
      "latitude_deg": -2.3318018784749522e-06,
      "longitude_deg": -108.89639898363401,
      "height_km": 558.8361700501813,
      "semi_major_axis_km": 6937.211257696044,
      "eccentricity": 9.716e-05,
      "inclination_deg": 43.0044,
      "raan_deg": 61.2716,
      "arg_perigee_deg": 271.4787,
      "mean_anomaly_deg": 88.5944,
      "mean_motion_rev_day": 15.02537714
    },
    {
      "epoch": "2026-03-30T14:48:32.927328Z",
      "apogee_km": 559.7691072297648,
      "perigee_km": 558.3872139697733,
      "latitude_deg": 4.755186033913053e-05,
      "longitude_deg": 7.516038774378145,
      "height_km": 558.8270230517558,
      "semi_major_axis_km": 6937.215160599769,
      "eccentricity": 9.96e-05,
      "inclination_deg": 43.0043,
      "raan_deg": 57.6594,
      "arg_perigee_deg": 272.5258,
      "mean_anomaly_deg": 87.5471,
      "mean_motion_rev_day": 15.02536446
    },
    {
      "epoch": "2026-03-31T14:44:28.677120Z",
      "apogee_km": 559.7287793329642,
      "perigee_km": 558.4578787366854,
      "latitude_deg": -2.6254072852589405e-05,
      "longitude_deg": 2.1334119893322927,
      "height_km": 558.8615764397331,
      "semi_major_axis_km": 6937.2303290348245,
      "eccentricity": 9.16e-05,
      "inclination_deg": 43.0044,
      "raan_deg": 52.242,
      "arg_perigee_deg": 270.9929,
      "mean_anomaly_deg": 89.0808,
      "mean_motion_rev_day": 15.02531518
    },
    {
      "epoch": "2026-04-01T05:06:01.600128Z",
      "apogee_km": 559.8138394187717,
      "perigee_km": 558.3528608130382,
      "latitude_deg": -4.70016402228997e-05,
      "longitude_deg": 142.90520232719095,
      "height_km": 558.8716412244587,
      "semi_major_axis_km": 6937.220350115905,
      "eccentricity": 0.0001053,
      "inclination_deg": 43.0046,
      "raan_deg": 48.9907,
      "arg_perigee_deg": 269.3027,
      "mean_anomaly_deg": 90.7694,
      "mean_motion_rev_day": 15.0253476
    },
    {
      "epoch": "2026-04-02T13:00:35.432064Z",
      "apogee_km": 559.8528130726163,
      "perigee_km": 558.3134439261021,
      "latitude_deg": 4.908347034125918e-05,
      "longitude_deg": 15.729467333428532,
      "height_km": 558.8352589607799,
      "semi_major_axis_km": 6937.220128499359,
      "eccentricity": 0.00011095,
      "inclination_deg": 43.0052,
      "raan_deg": 41.7663,
      "arg_perigee_deg": 272.0386,
      "mean_anomaly_deg": 88.033,
      "mean_motion_rev_day": 15.02534832
    }
  ]
}